{
    "links": {
        "self": "http://www.neowsapp.com/rest/v1/neo/3523338?api_key=iIulBulltgU6a56xZRHN4H3l9WmuAYTsLGpBGhQ2"
    },
    "id": "3523338",
    "neo_reference_id": "3523338",
    "name": "(2010 KV7)",
    "designation": "2010 KV7",
    "nasa_jpl_url": "http://ssd.jpl.nasa.gov/sbdb.cgi?sstr=3523338",
    "absolute_magnitude_h": 26.0,
    "estimated_diameter": {
        "kilometers": {
            "estimated_diameter_min": 0.0167708462,
            "estimated_diameter_max": 0.0375007522
        },
        "meters": {
            "estimated_diameter_min": 16.7708462163,
            "estimated_diameter_max": 37.5007521798
        },
        "miles": {
            "estimated_diameter_min": 0.0104209175,
            "estimated_diameter_max": 0.0233018799
        },
        "feet": {
            "estimated_diameter_min": 55.0224631002,
            "estimated_diameter_max": 123.0339677816
        }
    },
    "is_potentially_hazardous_asteroid": false,
    "close_approach_data": [
        {
            "close_approach_date": "2002-05-07",
            "close_approach_date_full": "2002-May-07 19:28",
            "epoch_date_close_approach": 1020799680000,
            "relative_velocity": {
                "kilometers_per_second": "10.8096195633",
                "kilometers_per_hour": "38914.6304280164",
                "miles_per_hour": "24180.0380012305"
            },
            "miss_distance": {
                "astronomical": "0.180930892",
                "lunar": "70.382116988",
                "kilometers": "27066876.06040004",
                "miles": "16818576.896158952"
            },
            "orbiting_body": "Earth"
        },
        {
            "close_approach_date": "2010-05-29",
            "close_approach_date_full": "2010-May-29 17:09",
            "epoch_date_close_approach": 1275152940000,
            "relative_velocity": {
                "kilometers_per_second": "4.8758272416",
                "kilometers_per_hour": "17552.9780696922",
                "miles_per_hour": "10906.7379566929"
            },
            "miss_distance": {
                "astronomical": "0.0198082548",
                "lunar": "7.7054111172",
                "kilometers": "2963272.726497276",
                "miles": "1841292.2903873688"
            },
            "orbiting_body": "Earth"
        },
        {
            "close_approach_date": "2010-10-13",
            "close_approach_date_full": "2010-Oct-13 02:12",
            "epoch_date_close_approach": 1286935920000,
            "relative_velocity": {
                "kilometers_per_second": "3.2245229376",
                "kilometers_per_hour": "11608.2825753729",
                "miles_per_hour": "7212.9353591254"
            },
            "miss_distance": {
                "astronomical": "0.2523285008",
                "lunar": "98.1557868112",
                "kilometers": "37747806.259973296",
                "miles": "23455399.1686356448"
            },
            "orbiting_body": "Earth"
        },
        {
            "close_approach_date": "2026-10-02",
            "close_approach_date_full": "2026-Oct-02 10:06",
            "epoch_date_close_approach": 1790935560000,
            "relative_velocity": {
                "kilometers_per_second": "18.7053992139",
                "kilometers_per_hour": "67339.4371699478",
                "miles_per_hour": "41842.1075015156"
            },
            "miss_distance": {
                "astronomical": "0.4488388074",
                "lunar": "174.5982960786",
                "kilometers": "67145329.560380238",
                "miles": "41722173.1059457644"
            },
            "orbiting_body": "Earth"
        },
        {
            "close_approach_date": "2030-02-01",
            "close_approach_date_full": "2030-Feb-01 13:45",
            "epoch_date_close_approach": 1896183900000,
            "relative_velocity": {
                "kilometers_per_second": "8.3695163679",
                "kilometers_per_hour": "30130.2589243609",
                "miles_per_hour": "18721.7711633064"
            },
            "miss_distance": {
                "astronomical": "0.4830381591",
                "lunar": "187.9018438899",
                "kilometers": "72261479.730081117",
                "miles": "44901201.4078967346"
            },
            "orbiting_body": "Earth"
        }
    ],
    "orbital_data": {
        "orbit_id": "6",
        "orbit_determination_date": "2017-04-06 08:57:27",
        "first_observation_date": "2010-05-17",
        "last_observation_date": "2010-05-20",
        "data_arc_in_days": 3,
        "observations_used": 13,
        "orbit_uncertainty": "8",
        "minimum_orbit_intersection": ".00125259",
        "jupiter_tisserand_invariant": "5.228",
        "epoch_osculation": "2455335.5",
        "eccentricity": ".218541730910739",
        "semi_major_axis": "1.214105985758994",
        "inclination": ".3144854601972688",
        "ascending_node_longitude": "255.9194065884117",
        "orbital_period": "488.633600151702",
        "perihelion_distance": ".9487731621221344",
        "perihelion_argument": "36.85674855028072",
        "aphelion_distance": "1.479438809395853",
        "perihelion_time": "2455386.484725234717",
        "mean_anomaly": "322.4370876689615",
        "mean_motion": ".7367483527293944",
        "equinox": "J2000",
        "orbit_class": {
            "orbit_class_type": "APO",
            "orbit_class_description": "Near-Earth asteroid orbits which cross the Earth’s orbit similar to that of 1862 Apollo",
            "orbit_class_range": "a (semi-major axis) > 1.0 AU; q (perihelion) < 1.017 AU"
        }
    },
    "is_sentry_object": false
}